[{"OBJECT_NAME":"TIANQI-6","OBJECT_ID":"2020-076D","EPOCH":"2026-03-09T22:50:24.728640","MEAN_MOTION":15.06417552,"ECCENTRICITY":0.00106023,"INCLINATION":34.9994,"RA_OF_ASC_NODE":297.1791,"ARG_OF_PERICENTER":9.4595,"MEAN_ANOMALY":350.6312,"EPHEMERIS_TYPE":0,"CLASSIFICATION_TYPE":"U","NORAD_CAT_ID":46810,"ELEMENT_SET_NO":999,"REV_AT_EPOCH":29360,"BSTAR":0.00037023286,"MEAN_MOTION_DOT":5.552e-5,"MEAN_MOTION_DDOT":0},{"OBJECT_NAME":"STARLINK-3569","OBJECT_ID":"2022-017AV","EPOCH":"2026-03-09T21:26:07.479168","MEAN_MOTION":15.08866008,"ECCENTRICITY":0.00013177,"INCLINATION":53.2194,"RA_OF_ASC_NODE":338.2123,"ARG_OF_PERICENTER":56.0167,"MEAN_ANOMALY":304.095,"EPHEMERIS_TYPE":0,"CLASSIFICATION_TYPE":"U","NORAD_CAT_ID":51811,"ELEMENT_SET_NO":999,"REV_AT_EPOCH":22399,"BSTAR":5.0992e-5,"MEAN_MOTION_DOT":5.24e-6,"MEAN_MOTION_DDOT":0}]
